STARLINK-30582          
1 58059U 23158J   26147.47629744 -.00000283  00000+0 -75463-6 0  9994
2 58059  43.0072 301.7414 0001988 268.3586  91.7038 15.27578158145624
STARLINK-30558          
1 58060U 23158K   26147.78537742 -.00008042  00000+0 -28296-3 0  9996
2 58060  43.0024 300.6022 0001809 270.9520  89.1125 15.27584081145669
STARLINK-30579          
1 58061U 23158L   26147.66281600 -.00000365  00000+0 -37265-5 0  9991
2 58061  43.0034 275.2494 0001946 277.2789  82.7841 15.27565232145942
STARLINK-30588          
1 58062U 23158M   26147.82893307  .00000076  00000+0  12295-4 0  9995
2 58062  43.0023 300.0772 0001343 264.8700  95.1999 15.27578017145670
STARLINK-30585          
1 58063U 23158N   26147.70586726  .00000491  00000+0  27359-4 0  9995
2 58063  43.0038 300.8804 0001380 272.0880  87.9814 15.27579389145658
STARLINK-30587          
1 58064U 23158P   26147.41862520  .00000346  00000+0  22078-4 0  9995
2 58064  43.0008 302.1677 0000303 271.8422  88.2395 15.27579304145613
STARLINK-30576          
1 58065U 23158Q   26147.69945095 -.00000552  00000+0 -10522-4 0  9997
2 58065  43.0033 300.8355 0001684 270.7906  89.2752 15.27560779145656
STARLINK-30571          
1 58066U 23158R   26147.71613481 -.00010229  00000+0 -36289-3 0  9991
2 58066  43.0034 300.9517 0001729 274.7260  85.3394 15.27560353145653
STARLINK-30567          
1 58067U 23158S   26147.78921538  .00005453  00000+0  20738-3 0  9997
2 58067  43.0045 300.6305 0001851 275.4880  84.5761 15.27607570145663
STARLINK-30569          
1 58068U 23158T   26147.83229683  .00007414  00000+0  27863-3 0  9991
2 58068  43.0046 303.5125 0001704 260.1651  99.9008 15.27587257145631
STARLINK-30480          
1 58069U 23158U   26147.75808000  .00001178  00000+0  52349-4 0  9998
2 58069  43.0052 158.2948 0001629 269.6863  90.3802 15.27578955147333
STARLINK-30532          
1 58070U 23158V   26147.83278314 -.00000428  00000+0 -60069-5 0  9996
2 58070  43.0018 300.1073 0001550 274.1931  85.8744 15.27582635145673
STARLINK-30506          
1 58072U 23158X   26147.71230787 -.00002673  00000+0 -87704-4 0  9995
2 58072  43.0008 300.9164 0001328 278.0223  82.0478 15.27554732145651
STARLINK-30604          
1 58075U 23160A   26146.99559972  .00001551  00000+0  65894-4 0  9998
2 58075  43.0049 355.4943 0002441 270.7661  89.2911 15.27579575144923
STARLINK-30500          
1 58076U 23160B   26147.00844659  .00000124  00000+0  14021-4 0  9992
2 58076  43.0027 355.5788 0001057 268.6913  91.3818 15.27587904144921
STARLINK-30613          
1 58077U 23160C   26147.00202919  .00000478  00000+0  26877-4 0  9994
2 58077  43.0022 355.5425 0000889 275.7454  84.3297 15.27579875144938
STARLINK-30597          
1 58078U 23160D   26147.83791552  .00000799  00000+0  38569-4 0  9999
2 58078  43.0026 350.6209 0001706 263.7854  96.2803 15.27578137145058
STARLINK-30598          
1 58079U 23160E   26147.00588446 -.00000349  00000+0 -31732-5 0  9994
2 58079  43.0041 355.5677 0000877 294.2170  65.8589 15.27581001144929
STARLINK-30603          
1 58080U 23160F   26147.00971824  .00001013  00000+0  46294-4 0  9997
2 58080  43.0052 355.5936 0001195 281.8231  78.2487 15.27602266144927
STARLINK-30602          
1 58081U 23160G   26147.01627650  .00025149  00000+0  98891-3 0  9999
2 58081  43.0040 358.2157 0001409 258.5396 101.5297 15.25196508144891
STARLINK-30610          
1 58082U 23160H   26147.62391421  .00001744  00000+0  72902-4 0  9992
2 58082  43.0058 352.4636 0001599 275.1736  84.8933 15.27569816145015
STARLINK-30551          
1 58083U 23160J   26147.00537983  .00000370  00000+0  22955-4 0  9997
2 58083  43.0005 358.9658 0001136 283.7053  76.3672 15.27586240144887
STARLINK-30586          
1 58084U 23160K   26147.00924371  .00002260  00000+0  91606-4 0  9998
2 58084  43.0004 358.9921 0001310 279.1237  80.9466 15.27583608144884
STARLINK-30609          
1 58085U 23160L   26147.01310858 -.00000732  00000+0 -17080-4 0  9997
2 58085  43.0037 359.0256 0001294 277.8389  82.2316 15.27566856144883
STARLINK-30583          
1 58086U 23160M   26147.60543147  .00016744  00000+0  61644-3 0  9994
2 58086  43.0015 355.7307 0000998 252.3958 107.6785 15.27588790144973
STARLINK-30557          
1 58087U 23160N   26147.60928733  .00000775  00000+0  37703-4 0  9990
2 58087  43.0028 355.7551 0001148 269.2198  90.8522 15.27570710144975
STARLINK-30591          
1 58088U 23160P   26147.83535779  .00002271  00000+0  92050-4 0  9999
2 58088  43.0026 350.6108 0001609 280.0797  79.9873 15.27571879145058
STARLINK-30584          
1 58089U 23160Q   26147.58793569  .00000116  00000+0  13713-4 0  9990
2 58089  43.0015 352.1897 0000578 259.9398 100.1388 15.27576727145016
STARLINK-30590          
1 58090U 23160R   26147.61442198  .00000063  00000+0  11824-4 0  9997
2 58090  43.0002 355.7776 0001259 272.7913  87.2795 15.27584789144970
STARLINK-30608          
1 58091U 23160S   26147.60335253  .00001642  00000+0  69186-4 0  9998
2 58091  43.0042 352.3069 0001432 265.9442  94.1246 15.27579941145015
STARLINK-30615          
1 58092U 23160T   26147.83163229 -.00011939  00000+0 -42431-3 0  9991
2 58092  43.0096 351.4384 0003049 281.8682  78.1828 15.27629276145042
STARLINK-30578          
1 58093U 23160U   26146.99816887  .00000494  00000+0  27458-4 0  9998
2 58093  43.0044 355.4980 0000987 269.3074  90.7665 15.27585120144920
STARLINK-30574          
1 58094U 23160V   26146.99431121  .00002208  00000+0  89721-4 0  9999
2 58094  43.0018 355.4704 0001433 263.6952  96.3737 15.27586779144928
STARLINK-30570          
1 58095U 23160W   26147.00460188  .00002439  00000+0  98154-4 0  9994
2 58095  43.0025 355.5504 0001462 270.3214  89.7470 15.27567167144924
STARLINK-30581          
1 58096U 23160X   26147.60462824 -.00001507  00000+0 -45245-4 0  9990
2 58096  43.0041 352.3047 0001551 253.6948 106.3733 15.27575852145016
STARLINK-30594          
1 58097U 23161A   26147.73079331  .00000065  00000+0  14315-4 0  9993
2 58097  53.1584 158.3618 0001390  71.1868 288.9283 15.30192233146520
STARLINK-30614          
1 58098U 23161B   26147.72762580  .00000532  00000+0  30094-4 0  9999
2 58098  53.1587 158.3428 0001098 101.4833 258.6292 15.30194369146523
STARLINK-30607          
1 58099U 23161C   26147.73087051  .00000156  00000+0  17383-4 0  9992
2 58099  53.1602 148.3651 0001347  89.2140 270.9015 15.30192417146656
STARLINK-30600          
1 58100U 23161D   26147.73712251 -.00000042  00000+0  10711-4 0  9995
2 58100  53.1595 158.3898 0001100  95.4790 264.6336 15.30190896146522
STARLINK-30605          
1 58101U 23161E   26147.72340329  .00000056  00000+0  14014-4 0  9992
2 58101  53.1600 158.3165 0001122  88.4630 271.6499 15.30196095146521
STARLINK-30592          
1 58102U 23161F   26147.72023646  .00000217  00000+0  19441-4 0  9991
2 58102  53.1594 158.2964 0001115  89.3444 270.7685 15.30196474146523
STARLINK-30589          
1 58103U 23161G   26147.76030543  .00001047  00000+0  47481-4 0  9997
2 58103  53.1599 158.3478 0000974  69.5093 290.6012 15.30196387146520
STARLINK-30617          
1 58104U 23161H   26147.76348247  .00001222  00000+0  53393-4 0  9995
2 58104  53.1609 158.3690 0001340  88.6430 271.4725 15.30192749146520
STARLINK-30616          
1 58105U 23161J   26147.70329111  .00057572  00000+0  17231-2 0  9997
2 58105  53.1605 145.2398 0001050  89.2830 270.8293 15.34011146146692
STARLINK-30612          
1 58106U 23161K   26147.28535639 -.00000892  00000+0 -15257-4 0  9998
2 58106  53.1594 146.9164 0001094  89.1963 270.9165 15.34397191146633
STARLINK-30421          
1 58107U 23161L   26147.72236513  .00000688  00000+0  31492-4 0  9997
2 58107  53.1607 144.6299 0001321  95.1132 265.0021 15.34389841146719
STARLINK-30611          
1 58108U 23161M   26147.41141035 -.00000299  00000+0  22953-5 0  9990
2 58108  53.1596 146.2236 0001236  94.2248 265.8895 15.34389619146663
STARLINK-30606          
1 58109U 23161N   26147.40738968 -.00000793  00000+0 -14658-4 0  9999
2 58109  53.1593 159.8934 0001153  96.2287 263.8845 15.30186570146478
STARLINK-30596          
1 58110U 23161P   26147.44948452 -.00000687  00000+0 -11071-4 0  9994
2 58110  53.1590 159.4503 0000897  76.5549 283.5552 15.30204231146481
STARLINK-30595          
1 58111U 23161Q   26147.74662053  .00000109  00000+0  15816-4 0  9996
2 58111  53.1602 158.4585 0001192  94.3356 265.7781 15.30190796146529
STARLINK-30593          
1 58112U 23161R   26147.41688613 -.00001075  00000+0 -24196-4 0  9997
2 58112  53.1587 159.9512 0001134  94.8603 265.2528 15.30181422146478
STARLINK-30353          
1 58113U 23161S   26147.75295338  .00000434  00000+0  26776-4 0  9995
2 58113  53.1605 158.4967 0001248  95.7949 264.3194 15.30189732146524
STARLINK-30572          
1 58114U 23161T   26147.74029015  .00001182  00000+0  52051-4 0  9998
2 58114  53.1600 158.4137 0001275  85.5409 274.5737 15.30186310146522
STARLINK-30580          
1 58115U 23161U   26147.45264110  .00001232  00000+0  53694-4 0  9994
2 58115  53.1603 159.4515 0001173  88.2786 271.8349 15.30203062146479
STARLINK-30493          
1 58116U 23161V   26147.74978334  .00001480  00000+0  62100-4 0  9994
2 58116  53.1603 158.4776 0001247  89.8619 270.2525 15.30184249146522
STARLINK-30601          
1 58117U 23161W   26147.75611913  .00000224  00000+0  19694-4 0  9998
2 58117  53.1602 158.5167 0001128  89.8372 270.2758 15.30190315146520
STARLINK-30795          
1 58118U 23162A   26147.10031454  .00003862  00000+0  14980-3 0  9998
2 58118  43.0050  49.2770 0001467 274.1972  85.8712 15.27577959144306
STARLINK-30765          
1 58119U 23162B   26147.11829987  .00001183  00000+0  52508-4 0  9999
2 58119  43.0073  49.3971 0001977 261.8712  98.1916 15.27576252144305
STARLINK-30768          
1 58120U 23162C   26147.75675400 -.00000471  00000+0 -76134-5 0  9993
2 58120  43.0034  45.6045 0001148 273.3263  86.7457 15.27568545144404
